{
  "type": "FeatureCollection",
  "features": [
    {
      "type": "Feature",
      "properties": {
        "norad_id": 35196,
        "name": "FENGYUN 1C DEB",
        "group": "fengyun-1c-debris",
        "lat": 75.55456221891512,
        "lon": -34.99805967080817,
        "alt_km": 832.4307345181351,
        "timestamp": "2025-12-11T10:53:16.175356+00:00",
        "meta_object_name": "FENGYUN 1C DEB",
        "meta_object_id": "1999-025DPC",
        "meta_epoch": "2025-12-10T20:09:17.938944",
        "meta_mean_motion": 14.19772926,
        "meta_eccentricity": 0.02145419,
        "meta_inclination": 98.5366,
        "meta_ra_of_asc_node": 0.0762,
        "meta_arg_of_pericenter": 343.8676,
        "meta_mean_anomaly": 196.1925,
        "meta_ephemeris_type": 0,
        "meta_classification_type": "U",
        "meta_norad_cat_id": 35196,
        "meta_element_set_no": 999,
        "meta_rev_at_epoch": 89107,
        "meta_bstar": 0.0014097193,
        "meta_mean_motion_dot": 3.715e-05,
        "meta_mean_motion_ddot": 0,
        "tle_line1": "1 35196U 99025DPC 25344.83979096  .00003715  00000+0  14097-2 0  9996",
        "tle_line2": "2 35196  98.5366   0.0762 0214541 343.8676 196.1925 14.19772926891078"
      },
      "geometry": {
        "type": "Point",
        "coordinates": [
          -34.99805967080817,
          75.55456221891512
        ]
      }
    },
    {
      "type": "Feature",
      "properties": {
        "norad_id": 35200,
        "name": "FENGYUN 1C DEB",
        "group": "fengyun-1c-debris",
        "lat": 12.68623976865231,
        "lon": 145.03261099287133,
        "alt_km": 1156.0587715093761,
        "timestamp": "2025-12-11T10:53:16.175366+00:00",
        "meta_object_name": "FENGYUN 1C DEB",
        "meta_object_id": "1999-025DPG",
        "meta_epoch": "2025-12-10T21:42:32.770944",
        "meta_mean_motion": 13.41957834,
        "meta_eccentricity": 0.0353291,
        "meta_inclination": 98.8704,
        "meta_ra_of_asc_node": 322.5346,
        "meta_arg_of_pericenter": 64.8789,
        "meta_mean_anomaly": 326.8003,
        "meta_ephemeris_type": 0,
        "meta_classification_type": "U",
        "meta_norad_cat_id": 35200,
        "meta_element_set_no": 999,
        "meta_rev_at_epoch": 65879,
        "meta_bstar": 0.00059322,
        "meta_mean_motion_dot": 4.47e-06,
        "meta_mean_motion_ddot": 0,
        "tle_line1": "1 35200U 99025DPG 25344.90454596  .00000447  00000+0  59322-3 0  9993",
        "tle_line2": "2 35200  98.8704 322.5346 0353291  64.8789 326.8003 13.41957834658790"
      },
      "geometry": {
        "type": "Point",
        "coordinates": [
          145.03261099287133,
          12.68623976865231
        ]
      }
    },
    {
      "type": "Feature",
      "properties": {
        "norad_id": 35201,
        "name": "FENGYUN 1C DEB",
        "group": "fengyun-1c-debris",
        "lat": 44.72104440177329,
        "lon": -176.74115789090538,
        "alt_km": 853.9941835650725,
        "timestamp": "2025-12-11T10:53:16.175377+00:00",
        "meta_object_name": "FENGYUN 1C DEB",
        "meta_object_id": "1999-025DPH",
        "meta_epoch": "2025-12-09T07:16:23.500128",
        "meta_mean_motion": 14.11050533,
        "meta_eccentricity": 0.0005797,
        "meta_inclination": 98.7079,
        "meta_ra_of_asc_node": 352.4442,
        "meta_arg_of_pericenter": 260.4942,
        "meta_mean_anomaly": 115.5706,
        "meta_ephemeris_type": 0,
        "meta_classification_type": "U",
        "meta_norad_cat_id": 35201,
        "meta_element_set_no": 999,
        "meta_rev_at_epoch": 86971,
        "meta_bstar": 0.00017778,
        "meta_mean_motion_dot": 2.77e-06,
        "meta_mean_motion_ddot": 0,
        "tle_line1": "1 35201U 99025DPH 25343.30304977  .00000277  00000+0  17778-3 0  9994",
        "tle_line2": "2 35201  98.7079 352.4442 0005797 260.4942 115.5706 14.11050533869711"
      },
      "geometry": {
        "type": "Point",
        "coordinates": [
          -176.74115789090538,
          44.72104440177329
        ]
      }
    },
    {
      "type": "Feature",
      "properties": {
        "norad_id": 35202,
        "name": "FENGYUN 1C DEB",
        "group": "fengyun-1c-debris",
        "lat": 71.0671504123726,
        "lon": -0.7773305381424925,
        "alt_km": 984.8157169979422,
        "timestamp": "2025-12-11T10:53:16.175388+00:00",
        "meta_object_name": "FENGYUN 1C DEB",
        "meta_object_id": "1999-025DPJ",
        "meta_epoch": "2025-12-10T09:21:24.258240",
        "meta_mean_motion": 13.34741042,
        "meta_eccentricity": 0.03739815,
        "meta_inclination": 100.0904,
        "meta_ra_of_asc_node": 29.443,
        "meta_arg_of_pericenter": 13.8242,
        "meta_mean_anomaly": 347.2795,
        "meta_ephemeris_type": 0,
        "meta_classification_type": "U",
        "meta_norad_cat_id": 35202,
        "meta_element_set_no": 999,
        "meta_rev_at_epoch": 56945,
        "meta_bstar": 0.00075501858,
        "meta_mean_motion_dot": 5.19e-06,
        "meta_mean_motion_ddot": 0,
        "tle_line1": "1 35202U 99025DPJ 25344.38986410  .00000519  00000+0  75502-3 0  9990",
        "tle_line2": "2 35202 100.0904  29.4430 0373981  13.8242 347.2795 13.34741042569456"
      },
      "geometry": {
        "type": "Point",
        "coordinates": [
          -0.7773305381424925,
          71.0671504123726
        ]
      }
    },
    {
      "type": "Feature",
      "properties": {
        "norad_id": 35203,
        "name": "FENGYUN 1C DEB",
        "group": "fengyun-1c-debris",
        "lat": -15.803465774290254,
        "lon": 128.7556532943416,
        "alt_km": 839.161880503756,
        "timestamp": "2025-12-11T10:53:16.175398+00:00",
        "meta_object_name": "FENGYUN 1C DEB",
        "meta_object_id": "1999-025DPK",
        "meta_epoch": "2025-12-11T04:29:49.244928",
        "meta_mean_motion": 13.26418458,
        "meta_eccentricity": 0.0511347,
        "meta_inclination": 102.0737,
        "meta_ra_of_asc_node": 311.9182,
        "meta_arg_of_pericenter": 162.6635,
        "meta_mean_anomaly": 199.2677,
        "meta_ephemeris_type": 0,
        "meta_classification_type": "U",
        "meta_norad_cat_id": 35203,
        "meta_element_set_no": 999,
        "meta_rev_at_epoch": 59630,
        "meta_bstar": 0.0022867,
        "meta_mean_motion_dot": 2.002e-05,
        "meta_mean_motion_ddot": 0,
        "tle_line1": "1 35203U 99025DPK 25345.18737552  .00002002  00000+0  22867-2 0  9995",
        "tle_line2": "2 35203 102.0737 311.9182 0511347 162.6635 199.2677 13.26418458596306"
      },
      "geometry": {
        "type": "Point",
        "coordinates": [
          128.7556532943416,
          -15.803465774290254
        ]
      }
    },
    {
      "type": "Feature",
      "properties": {
        "norad_id": 35204,
        "name": "FENGYUN 1C DEB",
        "group": "fengyun-1c-debris",
        "lat": -48.44425820315286,
        "lon": -16.4016490143406,
        "alt_km": 740.4444295366575,
        "timestamp": "2025-12-11T10:53:16.175409+00:00",
        "meta_object_name": "FENGYUN 1C DEB",
        "meta_object_id": "1999-025DPL",
        "meta_epoch": "2025-12-09T00:30:45.200736",
        "meta_mean_motion": 14.48683418,
        "meta_eccentricity": 0.00394138,
        "meta_inclination": 99.0062,
        "meta_ra_of_asc_node": 171.3122,
        "meta_arg_of_pericenter": 334.5683,
        "meta_mean_anomaly": 177.0138,
        "meta_ephemeris_type": 0,
        "meta_classification_type": "U",
        "meta_norad_cat_id": 35204,
        "meta_element_set_no": 999,
        "meta_rev_at_epoch": 90876,
        "meta_bstar": 0.0027505821,
        "meta_mean_motion_dot": 0.00010427,
        "meta_mean_motion_ddot": 0,
        "tle_line1": "1 35204U 99025DPL 25343.02135649  .00010427  00000+0  27506-2 0  9991",
        "tle_line2": "2 35204  99.0062 171.3122 0039413 334.5683 177.0138 14.48683418908765"
      },
      "geometry": {
        "type": "Point",
        "coordinates": [
          -16.4016490143406,
          -48.44425820315286
        ]
      }
    },
    {
      "type": "Feature",
      "properties": {
        "norad_id": 35207,
        "name": "FENGYUN 1C DEB",
        "group": "fengyun-1c-debris",
        "lat": 66.19732191290352,
        "lon": -75.9802619171505,
        "alt_km": 734.0087868819437,
        "timestamp": "2025-12-11T10:53:16.175451+00:00",
        "meta_object_name": "FENGYUN 1C DEB",
        "meta_object_id": "1999-025DPP",
        "meta_epoch": "2025-12-07T12:19:03.019296",
        "meta_mean_motion": 14.55301427,
        "meta_eccentricity": 0.00548039,
        "meta_inclination": 98.6918,
        "meta_ra_of_asc_node": 79.6299,
        "meta_arg_of_pericenter": 271.2245,
        "meta_mean_anomaly": 88.2673,
        "meta_ephemeris_type": 0,
        "meta_classification_type": "U",
        "meta_norad_cat_id": 35207,
        "meta_element_set_no": 999,
        "meta_rev_at_epoch": 64828,
        "meta_bstar": 0.0033629217,
        "meta_mean_motion_dot": 0.0001485,
        "meta_mean_motion_ddot": 0,
        "tle_line1": "1 35207U 99025DPP 25341.51322939  .00014850  00000+0  33629-2 0  9993",
        "tle_line2": "2 35207  98.6918  79.6299 0054803 271.2245  88.2673 14.55301427648289"
      },
      "geometry": {
        "type": "Point",
        "coordinates": [
          -75.9802619171505,
          66.19732191290352
        ]
      }
    }
  ]
}